{
  "status": "success",
  "hasErrors": false,
  "message": "",
  "length": 155,
  "payload": [
    {
      "_index": "tle",
      "_type": "_doc",
      "_id": "vWhctnYBAz3ao6c9A4eW",
      "_score": 9.726809,
      "_source": {
        "right_ascension": "260.5999",
        "anomaly": "357.0970",
        "calc_anomaly": 357.097,
        "satellite_number": 10976,
        "calc_mean_motion": 2.22305176,
        "ephemeris": "0",
        "set_number": "33",
        "calc_ballistic_coefficient": -0.0000013,
        "epoch": "17002.03572852",
        "international_designator": "78068B",
        "calc_inclination": 21.5846,
        "perigee": "155.5141",
        "revolution_number": "31255",
        "line_number": 39847,
        "calc_perigee": 155.5141,
        "drag": "-79162-3",
        "text": "1 10976U 78068B   17002.03572852 -.00000130  00000-0 -79162-3 0   337\n2 10976  21.5846 260.5999 7167028 155.5141 357.0970  2.22305176312559",
        "calc_drag": -0.00079162,
        "timestamp": "2017-01-02 00:51:26",
        "inclination": "21.5846",
        "eccentricity": "7167028",
        "classification": "U",
        "calc_right_ascension": 260.5999,
        "calc_mean_motion_2": 0,
        "ballistic_coefficient": "-.00000130",
        "filename": "tle2017.txt",
        "calc_eccentricity": 0.7167028,
        "mean_motion": "2.22305176",
        "mean_motion_2": "00000-0"
      }
    },
    {
      "_index": "tle",
      "_type": "_doc",
      "_id": "T2lqtnYBAz3ao6c998eW",
      "_score": 9.726809,
      "_source": {
        "right_ascension": "132.4049",
        "anomaly": "319.3755",
        "calc_anomaly": 319.3755,
        "satellite_number": 10976,
        "calc_mean_motion": 2.22309534,
        "ephemeris": "0",
        "set_number": "297",
        "calc_ballistic_coefficient": -0.00000117,
        "epoch": "18003.59282209",
        "international_designator": "78068B",
        "calc_inclination": 21.4859,
        "perigee": "22.7879",
        "revolution_number": "32071",
        "line_number": 151957,
        "calc_perigee": 22.7879,
        "drag": "34434-3",
        "text": "1 10976U 78068B   18003.59282209 -.00000117  00000-0  34434-3 0  2973\n2 10976  21.4859 132.4049 7160401  22.7879 319.3755  2.22309534320717",
        "calc_drag": 0.00034434,
        "timestamp": "2018-01-03 14:13:39",
        "inclination": "21.4859",
        "eccentricity": "7160401",
        "classification": "U",
        "calc_right_ascension": 132.4049,
        "calc_mean_motion_2": 0,
        "ballistic_coefficient": "-.00000117",
        "filename": "tle2018.txt",
        "calc_eccentricity": 0.7160401,
        "mean_motion": "2.22309534",
        "mean_motion_2": "00000-0"
      }
    },
    {
      "_index": "tle",
      "_type": "_doc",
      "_id": "PlF5tXYBAz3ao6c9biKJ",
      "_score": 9.444279,
      "_source": {
        "right_ascension": "49.7106",
        "anomaly": "73.9731",
        "calc_anomaly": 73.9731,
        "satellite_number": 10976,
        "calc_mean_motion": 2.22213163,
        "ephemeris": "0",
        "set_number": "224",
        "calc_ballistic_coefficient": -5.7e-7,
        "epoch": "04141.54904953",
        "international_designator": "78068B",
        "calc_inclination": 22.0022,
        "perigee": "210.3964",
        "revolution_number": "21004",
        "line_number": 130527,
        "calc_perigee": 210.3964,
        "drag": "19086-2",
        "text": "1 10976U 78068B   04141.54904953 -.00000057  00000-0  19086-2 0  2241\n2 10976  22.0022  49.7106 7186001 210.3964  73.9731  2.22213163210047",
        "calc_drag": 0.0019086,
        "timestamp": "2004-05-20 13:10:37",
        "inclination": "22.0022",
        "eccentricity": "7186001",
        "classification": "U",
        "calc_right_ascension": 49.7106,
        "calc_mean_motion_2": 0,
        "ballistic_coefficient": "-.00000057",
        "filename": "tle2004_1of8.txt",
        "calc_eccentricity": 0.7186001,
        "mean_motion": "2.22213163",
        "mean_motion_2": "00000-0"
      }
    },
    {
      "_index": "tle",
      "_type": "_doc",
      "_id": "CFF7tXYBAz3ao6c9J6Fw",
      "_score": 9.444279,
      "_source": {
        "right_ascension": "52.8224",
        "anomaly": "88.3955",
        "calc_anomaly": 88.3955,
        "satellite_number": 10976,
        "calc_mean_motion": 2.22212781,
        "ephemeris": "0",
        "set_number": "218",
        "calc_ballistic_coefficient": -5e-7,
        "epoch": "04132.56655090",
        "international_designator": "78068B",
        "calc_inclination": 21.9794,
        "perigee": "204.8175",
        "revolution_number": "20984",
        "line_number": 72507,
        "calc_perigee": 204.8175,
        "drag": "19086-2",
        "text": "1 10976U 78068B   04132.56655090 -.00000050  00000-0  19086-2 0  2184\n2 10976  21.9794  52.8224 7183149 204.8175  88.3955  2.22212781209848",
        "calc_drag": 0.0019086,
        "timestamp": "2004-05-11 13:35:49",
        "inclination": "21.9794",
        "eccentricity": "7183149",
        "classification": "U",
        "calc_right_ascension": 52.8224,
        "calc_mean_motion_2": 0,
        "ballistic_coefficient": "-.00000050",
        "filename": "tle2004_1of8.txt",
        "calc_eccentricity": 0.7183149,
        "mean_motion": "2.22212781",
        "mean_motion_2": "00000-0"
      }
    },
    {
      "_index": "tle",
      "_type": "_doc",
      "_id": "t-F9tXYBwxzt-Zlw8l9I",
      "_score": 9.444279,
      "_source": {
        "right_ascension": "349.5701",
        "anomaly": "355.3780",
        "calc_anomaly": 355.378,
        "satellite_number": 10976,
        "calc_mean_motion": 2.22158723,
        "ephemeris": "0",
        "set_number": "074",
        "calc_ballistic_coefficient": -4.9e-7,
        "epoch": "02006.01875461",
        "international_designator": "78068B",
        "calc_inclination": 21.9397,
        "perigee": "038.0993",
        "revolution_number": "1907",
        "line_number": 14641,
        "calc_perigee": 38.0993,
        "drag": "+10000-3",
        "text": "1 10976U 78068B   02006.01875461 -.00000049  00000-0  10000-3 0   744\n2 10976  21.9397 349.5701 7166713  38.0993 355.3780  2.22158723 19078",
        "calc_drag": 0.0001,
        "timestamp": "2002-01-06 00:27:00",
        "inclination": "021.9397",
        "eccentricity": "7166713",
        "classification": "U",
        "calc_right_ascension": 349.5701,
        "calc_mean_motion_2": 0,
        "ballistic_coefficient": "-.00000049",
        "filename": "tle2004_2of8.txt",
        "calc_eccentricity": 0.7166713,
        "mean_motion": "02.22158723",
        "mean_motion_2": "+00000-0"
      }
    },
    {
      "_index": "tle",
      "_type": "_doc",
      "_id": "4eF_tXYBwxzt-ZlwRpnt",
      "_score": 9.444279,
      "_source": {
        "right_ascension": "346.8507",
        "anomaly": "354.6502",
        "calc_anomaly": 354.6502,
        "satellite_number": 10976,
        "calc_mean_motion": 2.22160634,
        "ephemeris": "0",
        "set_number": "074",
        "calc_ballistic_coefficient": -9.3e-7,
        "epoch": "02014.12018960",
        "international_designator": "78068B",
        "calc_inclination": 21.9329,
        "perigee": "042.9637",
        "revolution_number": "1909",
        "line_number": 207953,
        "calc_perigee": 42.9637,
        "drag": "+10000-3",
        "text": "1 10976U 78068B   02014.12018960 -.00000093  00000-0  10000-3 0   747\n2 10976  21.9329 346.8507 7166396  42.9637 354.6502  2.22160634 19093",
        "calc_drag": 0.0001,
        "timestamp": "2002-01-14 02:53:04",
        "inclination": "021.9329",
        "eccentricity": "7166396",
        "classification": "U",
        "calc_right_ascension": 346.8507,
        "calc_mean_motion_2": 0,
        "ballistic_coefficient": "-.00000093",
        "filename": "tle2004_2of8.txt",
        "calc_eccentricity": 0.7166396,
        "mean_motion": "02.22160634",
        "mean_motion_2": "+00000-0"
      }
    },
    {
      "_index": "tle",
      "_type": "_doc",
      "_id": "euKBtXYBwxzt-Zlwgztx",
      "_score": 9.444279,
      "_source": {
        "right_ascension": "348.8307",
        "anomaly": "355.2012",
        "calc_anomaly": 355.2012,
        "satellite_number": 10976,
        "calc_mean_motion": 2.22158343,
        "ephemeris": "0",
        "set_number": "074",
        "calc_ballistic_coefficient": -1.3e-7,
        "epoch": "02008.26919964",
        "international_designator": "78068B",
        "calc_inclination": 21.9361,
        "perigee": "039.4229",
        "revolution_number": "1908",
        "line_number": 126471,
        "calc_perigee": 39.4229,
        "drag": "+10000-3",
        "text": "1 10976U 78068B   02008.26919964 -.00000013  00000-0  10000-3 0   741\n2 10976  21.9361 348.8307 7167140  39.4229 355.2012  2.22158343 19081",
        "calc_drag": 0.0001,
        "timestamp": "2002-01-08 06:27:38",
        "inclination": "021.9361",
        "eccentricity": "7167140",
        "classification": "U",
        "calc_right_ascension": 348.8307,
        "calc_mean_motion_2": 0,
        "ballistic_coefficient": "-.00000013",
        "filename": "tle2004_2of8.txt",
        "calc_eccentricity": 0.716714,
        "mean_motion": "02.22158343",
        "mean_motion_2": "+00000-0"
      }
    }
  ]
}